satname,norad_id,inclination_deg,eccentricity,mean_motion_rev_per_day,perigee_km,apogee_km,l1,l2
STARLINK-1404,45686,53.1607,0.00031,15.39423203,445.6977900085294,449.92987952608564,1 45686U 20035AF  26111.53181692  .00046544  00000+0  11739-2 0  9990,2 45686  53.1607 209.1711 0003100  17.6844 342.4268 15.39423203325559
STARLINK-1413,45689,53.1594,0.0001817,15.31105423,471.26820876588863,473.757734965664,1 45689U 20035AJ  26111.54441191  .00026420  00000+0  87612-3 0  9992,2 45689  53.1594 210.4753 0001817  42.8002 317.3141 15.31105423325450
STARLINK-1417,45693,53.05,0.0004598,15.14669639,518.809015480274,525.1543646276477,1 45693U 20035AN  26111.64847783  .00027841  00000+0  14977-2 0  9996,2 45693  53.0500 219.2716 0004598   6.2428 353.8621 15.14669639325400
STARLINK-1420,45695,53.046,0.0006618,15.62310791,376.5107908806913,385.4571634060394,1 45695U 20035AQ  26111.46283968  .00091763  00000+0  10131-2 0  9999,2 45695  53.0460 174.6751 0006618 339.6343  20.4405 15.62310791326025
STARLINK-1422,45696,53.1586,0.000191,15.31299135,470.6268498119571,473.24357739755396,1 45696U 20035AR  26111.55017770  .00036585  00000+0  11997-2 0  9998,2 45696  53.1586 210.4334 0001910  24.9358 335.1736 15.31299135325534
STARLINK-1351,45697,53.0465,0.0007123,15.59626038,383.91851198368386,393.55860290281817,1 45697U 20035AS  26111.87016634  .00043388  00000+0  53755-3 0  9990,2 45697  53.0465 172.4173 0007123 343.0741  17.0032 15.59626038326094
STARLINK-1400,45700,53.0445,0.0005667,15.58322969,388.67341168973144,396.34726338209475,1 45700U 20035AV  26111.63448061  .00071568  00000+0  92427-3 0  9992,2 45700  53.0445 175.4752 0005667 306.6986  53.3505 15.58322969326026
STARLINK-1403,45701,53.1551,0.0001684,15.30224234,473.98861971497263,476.29680432197983,1 45701U 20035AW  26111.92238480  .00033316  00000+0  11311-2 0  9998,2 45701  53.1551 195.8998 0001684  26.8269 333.2819 15.30224234325768
STARLINK-1407,45703,53.0298,0.0002988,15.66841507,365.932069828812,369.9635301052722,1 45703U 20035AY  26110.99754801  .00049957  00000+0  46609-3 0  9993,2 45703  53.0298 108.3172 0002988 300.2671  59.8048 15.66841507326914
STARLINK-1411,45706,53.0374,0.000589,15.72328031,348.2811498421652,356.2095402446248,1 45706U 20035BB  26112.00002315  .00094355  00000+0  69377-3 0  9995,2 45706  53.0374 128.1729 0005890  21.0323   1.5148 15.72328031  5869
STARLINK-1423,45710,53.0433,0.0007644,15.64367364,369.8966815850208,380.22096736147523,1 45710U 20035BF  26112.00002315  .00036212  00000+0  37464-3 0  9990,2 45710  53.0433 171.8571 0007644 314.0109 200.1745 15.64367364  5892
STARLINK-1433,45711,53.0437,0.0007178,15.63534561,372.60746696877686,382.30579718698846,1 45711U 20035BG  26111.88118748  .00096043  00000+0  10099-2 0  9996,2 45711  53.0437 170.8911 0007178 322.1990  37.8519 15.63534561326102
STARLINK-1434,45712,53.0516,0.0002959,15.30660042,471.8143104435476,475.8693115038823,1 45712U 20035BH  26111.45432669  .00041535  00000+0  13866-2 0  9992,2 45712  53.0516 181.3296 0002959 310.5084  49.5657 15.30660042325932
STARLINK-1465,45731,53.0498,0.0005238,15.56835612,393.27325182098957,400.37069884354787,1 45731U 20038B   26111.87766365  .00079244  00000+0  10803-2 0  9991,2 45731  53.0498  14.8343 0005238  96.1058 264.0550 15.56835612323092
STARLINK-1471,45735,53.046,0.0001875,15.51207566,411.92584540896496,414.4725964918216,1 45735U 20038F   26111.84410500  .00024369  00000+0  41604-3 0  9991,2 45735  53.0460 294.8921 0001875  61.5718 298.5479 15.51207566324223
STARLINK-1480,45741,53.0531,0.0002739,15.58568844,389.943955961774,393.65252648691694,1 45741U 20038M   26111.88081901  .00040877  00000+0  52808-3 0  9991,2 45741  53.0531   8.7146 0002739 159.1671 200.9453 15.58568844323192
STARLINK-1500,45744,53.0372,0.0003459,15.37038342,452.5092128225915,457.23628896825994,1 45744U 20038Q   26111.94759341  .00021325  00000+0  58875-3 0  9998,2 45744  53.0372 349.4631 0003459  70.5174 289.6202 15.37038342323464
STARLINK-1504,45746,53.022,7.93e-05,15.56059808,398.53621417210707,399.61107978071686,1 45746U 20038S   26111.82163725  .00028972  00000+0  41357-3 0  9994,2 45746  53.0220 293.6221 0000793  42.9726 317.1346 15.56059808324229
STARLINK-1506,45747,53.078,0.0004373,15.27594218,480.00614450054945,486.0069006253825,1 45747U 20038T   26111.99537828  .00031392  00000+0  11558-2 0  9991,2 45747  53.0780   1.8725 0004373  54.0684 306.0720 15.27594218323302
STARLINK-1464,45751,53.0497,0.0003109,15.49297242,416.66750935653636,420.89383276440094,1 45751U 20038X   26111.92949487  .00059935  00000+0  10777-2 0  9992,2 45751  53.0497 358.2118 0003109 107.9225 252.2122 15.49297242323345
STARLINK-1477,45754,53.052,0.0003585,15.16572563,513.736896281077,518.6801420183074,1 45754U 20038AA  26111.89439628  .00017010  00000+0  87460-3 0  9994,2 45754  53.0520  16.2386 0003585 104.3086 255.8305 15.16572563323086
STARLINK-1478,45755,53.0498,0.0002543,15.62334184,379.19767963151116,382.63533424514026,1 45755U 20038AB  26111.39628239  .00069766  00000+0  77369-3 0  9990,2 45755  53.0498 350.2149 0002543  94.2118 265.9186 15.62334184323394
STARLINK-1493,45759,53.0503,0.0004548,15.57464048,391.91896851067213,398.07981337187266,1 45759U 20038AF  26111.92686257  .00072371  00000+0  96526-3 0  9999,2 45759  53.0503 355.7928 0004548 162.4000 197.7170 15.57464048323364
STARLINK-1494,45760,53.0457,0.0003132,15.84475232,315.7055952002902,319.8999318681681,1 45760U 20038AG  26111.79387839  .00150284  00000+0  63486-3 0  9999,2 45760  53.0457 295.6675 0003132 199.1287 160.9619 15.84475232324208
STARLINK-1502,45764,53.0491,0.000624,15.53932916,401.0234483646136,409.4891231852607,1 45764U 20038AL  26111.87123494  .00066474  00000+0  10108-2 0  9996,2 45764  53.0491 358.6553 0006240 145.8779 214.2632 15.53932916323336
STARLINK-1470,45772,53.0454,0.0002884,15.31695337,468.7786752870288,472.72911555550763,1 45772U 20038AU  26111.85499341  .00033826  00000+0  10969-2 0  9990,2 45772  53.0454 333.3758 0002884 151.5345 208.5813 15.31695337323688
STARLINK-1482,45773,53.159,0.0003148,15.33795754,462.34571417645566,466.6538382907711,1 45773U 20038AV  26111.93587211  .00029076  00000+0  88501-3 0  9994,2 45773  53.1590 349.6166 0003148 151.5148 208.6027 15.33795754323470
STARLINK-1496,45780,53.0499,0.0001519,15.555225,399.60451617386207,401.6639068679224,1 45780U 20038BC  26111.85266527  .00075079  00000+0  10758-2 0  9999,2 45780  53.0499 330.0911 0001519 264.3580  95.7257 15.55522500323718
STARLINK-1513,45786,53.1615,0.00015,15.31694253,469.7297926681449,471.78446090618127,1 45786U 20038BJ  26111.85700020  .00001345  00000+0  55127-4 0  9992,2 45786  53.1615 350.5738 0001500  82.6318 277.4854 15.31694253323451
STARLINK-1522,46027,53.0632,0.0001576,15.11089442,531.787099759069,533.9654511434919,1 46027U 20055A   26111.76722944  .00021718  00000+0  12960-2 0  9991,2 46027  53.0632 292.0280 0001576 176.4735 183.6267 15.11089442315394
STARLINK-1523,46028,53.1626,0.0001354,15.30200278,474.28629560374975,476.1421831193693,1 46028U 20055B   26111.89126614  .00002756  00000+0  10514-3 0  9993,2 46028  53.1626 286.0356 0001354  79.1713 280.9440 15.30200278315516
STARLINK-1526,46029,53.1622,0.0001248,15.30193847,474.3781405987347,476.0887418608663,1 46029U 20055C   26111.88495122  .00001864  00000+0  75074-4 0  9998,2 46029  53.1622 286.0718 0001248  89.1381 270.9763 15.30193847315508
STARLINK-1555,46032,53.1589,0.0001261,15.30187814,474.38724257609283,476.1156671444087,1 46032U 20055F   26111.80383443  .00001027  00000+0  46810-4 0  9993,2 46032  53.1589 286.4332 0001261 102.4046 257.7096 15.30187814315499
STARLINK-1556,46033,53.16,0.000125,15.30188912,474.39150324156435,476.10484953566174,1 46033U 20055G   26111.65635417  .00000691  00000+0  35471-4 0  9995,2 46033  53.1600 287.1343 0001250  95.1435 264.9709 15.30188912315448
STARLINK-1557,46034,53.1543,8.78e-05,15.29363084,477.1131454129927,478.3170330398598,1 46034U 20055H   26111.78497487 -.00007461  00000+0 -24645-3 0  9997,2 46034  53.1543 286.4827 0000878 132.4976 227.6099 15.29363084315467
STARLINK-1558,46035,53.1593,0.0001283,15.30190145,474.3652059850865,476.1237836766604,1 46035U 20055J   26111.86282993  .00001022  00000+0  46638-4 0  9993,2 46035  53.1593 286.1718 0001283  93.0557 267.0590 15.30190145315504
STARLINK-1560,46036,53.1578,0.0002207,15.29362107,476.2049218344573,479.2310962354459,1 46036U 20055K   26111.78175462 -.00001548  00000+0 -41277-4 0  9996,2 46036  53.1578 286.5320 0002207  81.0179 279.1071 15.29362107315498
STARLINK-1567,46038,53.084,0.0001175,15.93301346,292.267847211182,293.8355765584747,1 46038U 20055M   26112.00002315  .00277374  40510-4  77157-3 0  9990,2 46038  53.0840 275.8579 0001175 307.8036 100.2206 15.93301346  2601
STARLINK-1569,46039,53.1588,0.0001214,15.3018973,474.41373329574617,476.0777346235527,1 46039U 20055N   26111.86599024  .00001591  00000+0  65850-4 0  9991,2 46039  53.1588 286.1519 0001214  90.2561 269.8579 15.30189730315492
STARLINK-1582,46043,53.1602,0.0001193,15.31705742,469.9058096923827,471.5399476594339,1 46043U 20055S   26111.92951904  .00002632  00000+0  96535-4 0  9993,2 46043  53.1602 285.7630 0001193  77.9919 282.1217 15.31705742315505
STARLINK-1591,46045,53.1588,9.63e-05,15.30198923,474.55830703511947,475.87826326304,1 46045U 20055U   26111.89864712  .00003641  00000+0  13501-3 0  9993,2 46045  53.1588 286.0037 0000963  73.0317 287.0789 15.30198923315489
STARLINK-1524,46047,53.1593,0.0001121,15.30192085,474.4704388682776,476.00696570072887,1 46047U 20055W   26111.82749512  .00001424  00000+0  60190-4 0  9992,2 46047  53.1593 273.4689 0001121  95.3107 264.8022 15.30192085315678
STARLINK-1527,46048,53.1625,0.0001261,15.31649151,470.0279151385439,471.75524014582425,1 46048U 20055X   26111.82894830  .00013015  00000+0  43109-3 0  9996,2 46048  53.1625 273.5065 0001261  85.6307 274.4839 15.31649151315656
